GLOBALSTAR M075         
1 37192U 10054E   25123.57786059 -.00000080  00000+0  13156-3 0  9999
2 37192  51.9957 317.3623 0000761  95.5990 301.8772 12.62264310670217
GLOBALSTAR M073         
1 37193U 10054F   25123.57272823 -.00000074  00000+0  16419-3 0  9997
2 37193  52.0056 231.1631 0000551 143.7232 229.2419 12.62271109672200
GLOBALSTAR M083         
1 37739U 11033A   25123.85832301 -.00000092  00000+0  67110-4 0  9990
2 37739  51.9841 179.0861 0000439 131.4899  40.3426 12.62263784641610
GLOBALSTAR M088         
1 37740U 11033B   25123.87882150 -.00000100  00000+0  23251-4 0  9999
2 37740  51.9728  84.5467 0000450  62.5747 323.5869 12.62265908637091
GLOBALSTAR M091         
1 37741U 11033C   25123.52810228 -.00000082  00000+0  11940-3 0  9999
2 37741  52.0016  49.0923 0000791  81.4119  89.4226 12.62267518637542
GLOBALSTAR M085         
1 37742U 11033D   25123.64123253 -.00000077  00000+0  14969-3 0  9996
2 37742  51.9891 359.8279 0000924  92.7552 292.6697 12.62268095638072
GLOBALSTAR M081         
1 37743U 11033E   25123.58944520 -.00000069  00000+0  19557-3 0  9997
2 37743  51.9984   2.7457 0000737  98.3679 291.0720 12.62263372638211
GLOBALSTAR M089         
1 37744U 11033F   25123.55020126 -.00000073  00000+0  17074-3 0  9999
2 37744  51.9941 317.1014 0000563  89.5951 302.3805 12.62269538639052
